OBJECT_NAME,OBJECT_ID,EPOCH,MEAN_MOTION,ECCENTRICITY,INCLINATION,RA_OF_ASC_NODE,ARG_OF_PERICENTER,MEAN_ANOMALY,EPHEMERIS_TYPE,CLASSIFICATION_TYPE,NORAD_CAT_ID,ELEMENT_SET_NO,REV_AT_EPOCH,BSTAR,MEAN_MOTION_DOT,MEAN_MOTION_DDOT
ONEWEB-0636,2023-043AH,2026-06-11T15:50:32.584704,13.15549159,.0002001,87.9006,260.2988,94.4374,265.6985,0,U,56077,999,15568,.30442E-4,.24E-6,0
ONEWEB-0637,2023-043AJ,2026-06-11T15:41:25.236384,13.15548937,.0002257,87.9001,260.3169,97.9854,262.1532,0,U,56078,999,15570,.13388E-3,.63E-6,0
ONEWEB-0647,2023-043AK,2026-06-11T15:34:34.789728,13.15548349,.0001826,87.9000,260.3303,97.0832,263.0506,0,U,56079,999,15569,.19306E-3,.86E-6,0
ONEWEB-0651,2023-043AL,2026-06-11T17:17:15.152928,13.15548537,.0002123,87.8999,260.3098,95.1267,265.0106,0,U,56080,999,15690,.58992E-3,.235E-5,0
ONEWEB-0718,2023-043AM,2026-06-11T15:20:51.147168,13.15551023,.0002282,87.8998,260.3064,112.2201,247.9172,0,U,56081,999,15570,.36523E-3,.15E-5,0
ONEWEB-0561,2023-068A,2026-06-11T14:12:01.235808,13.20771179,.0001804,87.9193,275.5583,89.3687,270.7653,0,U,56710,999,14876,.19185E-3,.91E-6,0
ONEWEB-0668,2023-068B,2026-06-11T15:40:32.407104,13.16594148,.0002561,87.9100,229.8712,102.3172,257.8246,0,U,56711,999,15105,-.9041E-5,.9E-7,0
ONEWEB-0676,2023-068C,2026-06-11T15:51:55.069056,13.16593083,.0002089,87.9101,229.8754,88.5662,271.5708,0,U,56712,999,15097,-.10433E-3,-.27E-6,0
ONEWEB-0677,2023-068D,2026-06-11T06:38:39.757920,13.20770047,.0002315,87.9191,275.6126,94.5966,265.5431,0,U,56713,999,14902,.15941E-3,.78E-6,0
ONEWEB-0678,2023-068E,2026-06-11T16:24:45.660384,13.15548264,.0001682,87.9011,260.2892,99.8153,260.3167,0,U,56714,999,14856,-.4235E-3,-.147E-5,0
ONEWEB-0679,2023-068F,2026-06-11T16:42:05.690016,13.16593783,.0002607,87.9096,229.8603,93.7906,266.3523,0,U,56715,999,15100,-.11489E-3,-.31E-6,0
ONEWEB-0680,2023-068G,2026-06-11T15:29:52.755072,13.21827535,.0002626,87.9263,245.0730,101.1419,259.0011,0,U,56716,999,15036,-.61286E-4,-.12E-6,0
ONEWEB-0681,2023-068H,2026-06-11T15:02:01.329792,13.21826777,.0002198,87.9257,245.0783,73.4712,286.6664,0,U,56717,999,15035,-.81127E-4,-.2E-6,0
ONEWEB-0682,2023-068J,2026-06-11T16:59:00.051936,13.15548170,.0002516,87.9005,260.2852,102.0520,258.0893,0,U,56718,999,14873,.17882E-3,.8E-6,0
ONEWEB-0683,2023-068K,2026-06-11T15:43:42.233952,13.15549031,.0002213,87.9012,260.2951,104.6639,255.4737,0,U,56719,999,14869,.23441E-3,.101E-5,0
ONEWEB-0684,2023-068L,2026-06-11T15:55:06.273120,13.15547904,.0001161,87.9009,260.2836,142.6589,217.4622,0,U,56720,999,14852,-.73243E-4,-.15E-6,0
ONEWEB-0686,2023-068M,2026-06-11T15:45:06.181056,13.16594580,.0002144,87.9092,229.8918,107.3882,252.7484,0,U,56721,999,15098,-.55387E-4,-.8E-7,0
ONEWEB-0694,2023-068N,2026-06-11T15:54:13.086144,13.16594692,.0002514,87.9112,229.8539,101.3559,258.7854,0,U,56722,999,15104,-.22039E-3,-.71E-6,0
ONEWEB-0696,2023-068P,2026-06-11T16:42:59.436000,13.15546322,.0001489,87.8999,260.3157,98.6100,261.5199,0,U,56723,999,14864,-.28698E-3,-.95E-6,0
ONEWEB-0703,2023-068Q,2026-06-11T15:07:11.466048,13.15548310,.0001267,87.8999,260.3102,81.4621,278.6652,0,U,56724,999,14852,.78605E-4,.42E-6,0
ONEWEB-0721,2023-068R,2026-06-11T12:59:12.235776,13.22468888,.000192,86.6768,87.3182,78.2563,281.8786,0,U,56725,999,15719,-.97466E-5,.1E-6,0
ONEWEB-0015,2024-188A,2026-06-11T14:05:34.492128,13.11419500,.00022845,87.8892,22.2081,75.8714,284.2667,0,U,61594,999,8372,.91050115E-3,.335E-5,0
ONEWEB-0687,2024-188B,2026-06-11T14:40:33.746016,13.17647384,.00023529,87.9130,6.9864,89.3318,270.8083,0,U,61595,999,8516,-.14198166E-4,.7E-7,0
ONEWEB-0688,2024-188C,2026-06-11T13:32:31.641504,13.17648497,.00028617,87.9131,6.9953,69.6101,290.5338,0,U,61596,999,8515,.14006394E-3,.67E-6,0
ONEWEB-0689,2024-188D,2026-06-11T14:54:23.743296,13.11416273,.00020097,87.8903,22.1584,92.3932,267.7426,0,U,61597,999,8372,-.33776574E-3,-.107E-5,0
ONEWEB-0690,2024-188E,2026-06-11T15:09:02.423520,13.11415073,.00013693,87.8900,22.1680,67.1075,293.0198,0,U,61598,999,8390,-.16410677E-2,-.569E-5,0
ONEWEB-0691,2024-188F,2026-06-11T15:01:43.919328,13.11415006,.00021767,87.8907,22.0775,80.5441,279.5933,0,U,61599,999,8375,-.1094104E-2,-.375E-5,0
ONEWEB-0692,2024-188G,2026-06-11T13:41:08.599488,13.11419398,.00016855,87.8891,22.2029,110.8081,249.3228,0,U,61600,999,8373,-.12472029E-2,-.429E-5,0
ONEWEB-0693,2024-188H,2026-06-11T13:49:31.773216,13.17647983,.00014968,87.9128,7.0132,62.2007,297.9276,0,U,61601,999,8514,.71735829E-4,.41E-6,0
ONEWEB-0695,2024-188J,2026-06-11T14:56:50.580096,13.11414321,.00019428,87.8889,22.1844,100.9002,259.2344,0,U,61602,999,8373,-.52702354E-3,-.174E-5,0
